[{"OBJECT_NAME":"STARLINK-5631","OBJECT_ID":"2023-013R","EPOCH":"2026-03-08T23:45:53.991936","MEAN_MOTION":15.02527015,"ECCENTRICITY":0.00014588,"INCLINATION":43.0022,"RA_OF_ASC_NODE":304.182,"ARG_OF_PERICENTER":265.7976,"MEAN_ANOMALY":94.27,"EPHEMERIS_TYPE":0,"CLASSIFICATION_TYPE":"U","NORAD_CAT_ID":55346,"ELEMENT_SET_NO":999,"REV_AT_EPOCH":17160,"BSTAR":-0.00010228219,"MEAN_MOTION_DOT":-1.585e-5,"MEAN_MOTION_DDOT":0},{"OBJECT_NAME":"DELTA 1 DEB","OBJECT_ID":"1977-065M","EPOCH":"2026-03-09T01:35:26.833920","MEAN_MOTION":14.02258817,"ECCENTRICITY":0.04653663,"INCLINATION":29.2135,"RA_OF_ASC_NODE":334.0643,"ARG_OF_PERICENTER":210.7683,"MEAN_ANOMALY":146.4816,"EPHEMERIS_TYPE":0,"CLASSIFICATION_TYPE":"U","NORAD_CAT_ID":10183,"ELEMENT_SET_NO":999,"REV_AT_EPOCH":39655,"BSTAR":0.00095577742,"MEAN_MOTION_DOT":4.037e-5,"MEAN_MOTION_DDOT":0}]
